NORAD_CAT_ID,OBJECT_NAME,OBJECT_TYPE,EPOCH,MEAN_MOTION,ECCENTRICITY,INCLINATION,RA_OF_ASC_NODE,ARG_OF_PERICENTER,MEAN_ANOMALY,BSTAR,MEAN_MOTION_DOT,MEAN_MOTION_DDOT,TLE_LINE0,TLE_LINE1,TLE_LINE2,SEMIMAJOR_AXIS,PERIOD,APOGEE,PERIGEE,DECAYED
52668.0,STARLINK-4067,PAYLOAD,2022-11-05 03:01:16,15.08835498,0.0002258,53.2174,233.4557,39.0452,321.0703,1.5907000000000002e-05,-3.5e-07,0.0,0 STARLINK-4067,1 52668U 22053N   22309.12589072 -.00000035  00000-0  15907-4 0  9994,2 52668  53.2174 233.4557 0002258  39.0452 321.0703 15.08835498 26780,6917.894,95.438,541.321,538.197,0.0
52668.0,STARLINK-4067,PAYLOAD,2022-11-05 12:33:37,15.08825546,0.0002988,53.2184,231.6716,35.0871,325.0317,-0.00011904,-2.182e-05,0.0,0 STARLINK-4067,1 52668U 22053N   22309.52334513 -.00002182  00000-0 -11904-3 0  9994,2 52668  53.2184 231.6716 0002988  35.0871 325.0317 15.08825546 26844,6917.925,95.438,541.857,537.722,0.0
52668.0,STARLINK-4067,PAYLOAD,2022-11-06 01:16:43,15.08813068,0.0002317,53.2177,229.2915,33.478,326.6358,-0.00021359,-3.684e-05,0.0,0 STARLINK-4067,1 52668U 22053N   22310.05327976 -.00003684  00000-0 -21359-3 0  9992,2 52668  53.2177 229.2915 0002317  33.4780 326.6358 15.08813068 26924,6917.9630000000025,95.439,541.431,538.225,0.0
52668.0,STARLINK-4067,PAYLOAD,2022-11-07 01:07:28,15.0884185,0.000231,53.2176,224.833,43.3429,316.7744,0.00015994,2.258e-05,0.0,0 STARLINK-4067,1 52668U 22053N   22311.04685408  .00002258  00000-0  15994-3 0  9991,2 52668  53.2176 224.8330 0002310  43.3429 316.7744 15.08841850 27074,6917.875,95.437,541.3380000000002,538.1419999999998,0.0
52668.0,STARLINK-4067,PAYLOAD,2022-11-08 04:09:01,15.08842768,0.0002858,53.2183,219.7768,38.3732,321.7463,0.00026675,3.96e-05,0.0,0 STARLINK-4067,1 52668U 22053N   22312.17293696  .00003960  00000-0  26675-3 0  9999,2 52668  53.2183 219.7768 0002858  38.3732 321.7463 15.08842768 27240,6917.871999999999,95.437,541.714,537.76,0.0
52668.0,STARLINK-4067,PAYLOAD,2022-11-08 18:27:29,15.08853647,0.000272,53.219,217.106,47.4663,312.6559,-1.9915e-05,-6.06e-06,0.0,0 STARLINK-4067,1 52668U 22053N   22312.76909566 -.00000606  00000-0 -19915-4 0  9990,2 52668  53.2190 217.1060 0002720  47.4663 312.6559 15.08853647 27330,6917.839,95.437,541.585,537.822,0.0
52668.0,STARLINK-4067,PAYLOAD,2022-11-09 10:21:21,15.08845593,0.0002634999999999,53.2178,214.1265,37.4536,322.6639,-9.8104e-05,-1.85e-05,0.0,0 STARLINK-4067,1 52668U 22053N   22313.43149813 -.00001850  00000-0 -98104-4 0  9995,2 52668  53.2178 214.1265 0002635  37.4536 322.6639 15.08845593 27435,6917.863,95.437,541.5509999999998,537.905,0.0
52668.0,STARLINK-4067,PAYLOAD,2022-11-09 21:29:03,15.08842121,0.0002273,53.2176,212.0469,41.9447,318.1719,-0.00011871,-2.177e-05,0.0,0 STARLINK-4067,1 52668U 22053N   22313.89518149 -.00002177  00000-0 -11871-3 0  9995,2 52668  53.2176 212.0469 0002273  41.9447 318.1719 15.08842121 27506,6917.874,95.437,541.311,538.1659999999998,0.0
52668.0,STARLINK-4067,PAYLOAD,2022-11-10 02:15:13,15.08831847,0.0002402,53.2179,211.1564,41.4401,318.6773,-0.00019021,-3.314e-05,0.0,0 STARLINK-4067,1 52668U 22053N   22314.09391078 -.00003314  00000-0 -19021-3 0  9997,2 52668  53.2179 211.1564 0002402  41.4401 318.6773 15.08831847 27535,6917.905,95.438,541.432,538.109,0.0
52668.0,STARLINK-4067,PAYLOAD,2022-11-10 10:12:10,15.08819065,0.0002852,53.2182,209.6651,40.1253,319.995,-0.00026535,-4.507e-05,0.0,0 STARLINK-4067,1 52668U 22053N   22314.42512333 -.00004507  00000-0 -26535-3 0  9996,2 52668  53.2182 209.6651 0002852  40.1253 319.9950 15.08819065 27582,6917.944,95.439,541.7819999999998,537.836,0.0
52668.0,STARLINK-4067,PAYLOAD,2022-11-11 02:06:01,15.08824952,0.0002097,53.2172,206.6925,41.49800000000001,318.6171,-8.1766e-05,-1.589e-05,0.0,0 STARLINK-4067,1 52668U 22053N   22315.08752052 -.00001589  00000-0 -81766-4 0  9998,2 52668  53.2172 206.6925 0002097  41.4980 318.6171 15.08824952 27687,6917.926,95.439,541.242,538.341,0.0
52668.0,STARLINK-4067,PAYLOAD,2022-11-11 10:02:57,15.08833636,0.0002429,53.2176,205.2064,37.9612,322.1551,-4.7073e-05,-1.037e-05,0.0,0 STARLINK-4067,1 52668U 22053N   22315.41871683 -.00001037  00000-0 -47073-4 0  9998,2 52668  53.2176 205.2064 0002429  37.9612 322.1551 15.08833636 27738,6917.9,95.438,541.445,538.0840000000002,0.0
52668.0,STARLINK-4067,PAYLOAD,2022-11-11 21:10:38,15.08834196,0.0002127,53.2172,203.1246,34.8606,325.2525,0.00018203,2.61e-05,0.0,0 STARLINK-4067,1 52668U 22053N   22315.88239205  .00002610  00000-0  18203-3 0  9995,2 52668  53.2172 203.1246 0002127  34.8606 325.2525 15.08834196 27802,6917.898,95.438,541.235,538.2919999999998,0.0
52668.0,STARLINK-4067,PAYLOAD,2022-11-12 01:56:47,15.0884311,0.0002367,53.2171,202.2332,37.1794,322.9362,0.00019493,2.816e-05,0.0,0 STARLINK-4067,1 52668U 22053N   22316.08110823  .00002816  00000-0  19493-3 0  9992,2 52668  53.2171 202.2332 0002367  37.1794 322.9362 15.08843110 27839,6917.871,95.437,541.373,538.0980000000002,0.0
52668.0,STARLINK-4067,PAYLOAD,2022-11-12 09:53:43,15.08846545,0.0002365,53.2173,200.7458,40.6008,319.5161,0.00029149,4.355e-05,0.0,0 STARLINK-4067,1 52668U 22053N   22316.41230418  .00004355  00000-0  29149-3 0  9991,2 52668  53.2173 200.7458 0002365  40.6008 319.5161 15.08846545 27887,6917.86,95.437,541.361,538.089,0.0
52668.0,STARLINK-4067,PAYLOAD,2022-11-12 21:01:25,15.0884389,0.0002425,53.2174,198.6652,41.2842,318.8333,0.0002715,4.036e-05,0.0,0 STARLINK-4067,1 52668U 22053N   22316.87598702  .00004036  00000-0  27150-3 0  9990,2 52668  53.2174 198.6652 0002425  41.2842 318.8333 15.08843890 27950,6917.868,95.437,541.411,538.056,0.0
52668.0,STARLINK-4067,PAYLOAD,2022-11-13 01:47:34,15.0884995,0.0002341,53.2174,197.772,41.4461,318.6708,0.00025592,3.788e-05,0.0,0 STARLINK-4067,1 52668U 22053N   22317.07470425  .00003788  00000-0  25592-3 0  9995,2 52668  53.2174 197.7720 0002341  41.4461 318.6708 15.08849950 27982,6917.85,95.437,541.3340000000002,538.096,0.0
52668.0,STARLINK-4067,PAYLOAD,2022-11-13 19:16:49,15.08839568,0.0002104,53.2172,194.5009,41.9336,318.1817,2.2356e-05,6.8e-07,0.0,0 STARLINK-4067,1 52668U 22053N   22317.80335615  .00000068  00000-0  22356-4 0  9991,2 52668  53.2172 194.5009 0002104  41.9336 318.1817 15.08839568 28091,6917.882,95.438,541.202,538.2909999999998,0.0
52668.0,STARLINK-4067,PAYLOAD,2022-11-14 01:38:22,15.08837143,0.0002299,53.2161,193.3116,37.5832,322.532,-0.00015945,-2.825e-05,0.0,0 STARLINK-4067,1 52668U 22053N   22318.06831439 -.00002825  00000-0 -15945-3 0  9995,2 52668  53.2161 193.3116 0002299  37.5832 322.5320 15.08837143 28132,6917.889,95.438,541.345,538.164,0.0
52668.0,STARLINK-4067,PAYLOAD,2022-11-15 01:29:08,15.0884904,0.0002296,53.2157,188.8511,35.4663,324.6481,5.5262e-05,5.91e-06,0.0,0 STARLINK-4067,1 52668U 22053N   22319.06190695  .00000591  00000-0  55262-4 0  9991,2 52668  53.2157 188.8511 0002296  35.4663 324.6481 15.08849040 28287,6917.853,95.437,541.306,538.129,0.0
52668.0,STARLINK-4067,PAYLOAD,2022-11-15 03:04:31,15.08847146,0.0002292,53.216,188.554,36.98,323.1349,2.1691e-05,5.7e-07,0.0,0 STARLINK-4067,1 52668U 22053N   22319.12814777  .00000057  00000-0  21691-4 0  9998,2 52668  53.2160 188.5540 0002292  36.9800 323.1349 15.08847146 28298,6917.859,95.437,541.309,538.138,0.0
52668.0,STARLINK-4067,PAYLOAD,2022-11-15 18:58:24,15.08834308,0.0002315,53.2157,185.5806,35.9339,324.1809,0.00015723,2.215e-05,0.0,0 STARLINK-4067,1 52668U 22053N   22319.79055692  .00002215  00000-0  15723-3 0  9990,2 52668  53.2157 185.5806 0002315  35.9339 324.1809 15.08834308 28397,6917.898,95.438,541.364,538.161,0.0
52668.0,STARLINK-4067,PAYLOAD,2022-11-15 20:33:47,15.08836193,0.0002251,53.2157,185.2831,36.558,323.5565,0.00016682,2.367e-05,0.0,0 STARLINK-4067,1 52668U 22053N   22319.85679568  .00002367  00000-0  16682-3 0  9994,2 52668  53.2157 185.2831 0002251  36.5580 323.5565 15.08836193 28404,6917.892,95.438,541.314,538.2,0.0
52668.0,STARLINK-4067,PAYLOAD,2022-11-16 02:55:19,15.08843401,0.0002307,53.2156,184.0937,36.4323,323.6826,0.00020791,3.023e-05,0.0,0 STARLINK-4067,1 52668U 22053N   22320.12175360  .00003023  00000-0  20791-3 0  9993,2 52668  53.2156 184.0937 0002307  36.4323 323.6826 15.08843401 28448,6917.87,95.437,541.331,538.139,0.0
52668.0,STARLINK-4067,PAYLOAD,2022-11-16 18:49:10,15.08845108,0.0002253,53.2158,181.1197,37.9815,322.1336,0.0001169,1.573e-05,0.0,0 STARLINK-4067,1 52668U 22053N   22320.78415155  .00001573  00000-0  11690-3 0  9990,2 52668  53.2158 181.1197 0002253  37.9815 322.1336 15.08845108 28545,6917.865,95.437,541.288,538.1709999999998,0.0
52668.0,STARLINK-4067,PAYLOAD,2022-11-17 01:10:43,15.08838652,0.0002291,53.2155,179.9305,36.1992,323.9155,-2.5646e-05,-6.96e-06,0.0,0 STARLINK-4067,1 52668U 22053N   22321.04911355 -.00000696  00000-0 -25646-4 0  9997,2 52668  53.2155 179.9305 0002291  36.1992 323.9155 15.08838652 28585,6917.885,95.438,541.3340000000002,538.165,0.0
52668.0,STARLINK-4067,PAYLOAD,2022-11-17 07:32:15,15.08842955,0.0002309,53.2156,178.7412,36.2884,323.8264,5.1405e-05,5.3e-06,0.0,0 STARLINK-4067,1 52668U 22053N   22321.31407273  .00000530  00000-0  51405-4 0  9993,2 52668  53.2156 178.7412 0002309  36.2884 323.8264 15.08842955 28629,6917.871,95.437,541.3340000000002,538.139,0.0
52668.0,STARLINK-4067,PAYLOAD,2022-11-17 20:15:20,15.08844508,0.0002313,53.2156,176.3622,36.6715,323.4435,9.1957e-05,1.176e-05,0.0,0 STARLINK-4067,1 52668U 22053N   22321.84399120  .00001176  00000-0  91957-4 0  9995,2 52668  53.2156 176.3622 0002313  36.6715 323.4435 15.08844508 28709,6917.8669999999975,95.437,541.332,538.132,0.0
52668.0,STARLINK-4067,PAYLOAD,2022-11-18 01:01:30,15.08845892,0.0002332,53.2156,175.4702,37.0328,323.0825,0.00010387,1.365e-05,0.0,0 STARLINK-4067,1 52668U 22053N   22322.04271007  .00001365  00000-0  10387-3 0  9998,2 52668  53.2156 175.4702 0002332  37.0328 323.0825 15.08845892 28733,6917.861999999999,95.437,541.341,538.114,0.0
